ONEWEB-0094             
1 45450U 20020AC  25225.58742082  .00000053  00000+0  10379-3 0  9994
2 45450  87.9031  67.0460 0001860  87.8828 272.2517 13.17890842265807
ONEWEB-0087             
1 45451U 20020AD  25225.86043769 -.00000570  00000+0 -16447-2 0  9999
2 45451  87.8789  82.2535 0001989  82.8660 277.2694 13.11418785262309
ONEWEB-0082             
1 45452U 20020AE  25225.85721141 -.00000506  00000+0 -14632-2 0  9999
2 45452  87.8794  82.2794 0001844  78.7310 281.4025 13.11414522262398
ONEWEB-0050             
1 45453U 20020AF  25225.90742882 -.00001118  00000+0 -11602-3 0  9996
2 45453  87.9956 280.6979 0003432  47.9460 312.2061 14.90954946294630
ONEWEB-0034             
1 45454U 20020AG  25225.64951454  .00000035  00000+0  64280-4 0  9991
2 45454  87.8798  82.3413 0001766  81.8193 278.3135 13.11418996262284
ONEWEB-0060             
1 45455U 20020AH  25225.84961210  .00001097  00000+0  30600-2 0  9991
2 45455  87.8792  82.3302 0002763  67.5964 292.5457 13.11410149262266
ONEWEB-0086             
1 45456U 20020AJ  25225.90470919  .00000445  00000+0  12184-2 0  9993
2 45456  87.8797  82.2876 0002083  63.3379 296.7962 13.11415030262335
ONEWEB-0088             
1 45457U 20020AK  25225.88264211  .00000169  00000+0  44144-3 0  9992
2 45457  87.8795  82.2386 0001855  85.7666 274.3674 13.11418934262263
